[{"OBJECT_NAME":"STARLINK-34904","OBJECT_ID":"2025-184B","EPOCH":"2026-03-09T17:20:54.889728","MEAN_MOTION":15.05634337,"ECCENTRICITY":0.00013054,"INCLINATION":97.602,"RA_OF_ASC_NODE":122.6597,"ARG_OF_PERICENTER":115.1435,"MEAN_ANOMALY":244.9928,"EPHEMERIS_TYPE":0,"CLASSIFICATION_TYPE":"U","NORAD_CAT_ID":65274,"ELEMENT_SET_NO":999,"REV_AT_EPOCH":3130,"BSTAR":0.0003313828,"MEAN_MOTION_DOT":4.722e-5,"MEAN_MOTION_DDOT":0},{"OBJECT_NAME":"OBJECT R","OBJECT_ID":"2021-022R","EPOCH":"2026-03-09T22:54:37.456416","MEAN_MOTION":15.08912229,"ECCENTRICITY":0.00182027,"INCLINATION":97.3728,"RA_OF_ASC_NODE":308.5333,"ARG_OF_PERICENTER":149.1845,"MEAN_ANOMALY":211.0456,"EPHEMERIS_TYPE":0,"CLASSIFICATION_TYPE":"U","NORAD_CAT_ID":47947,"ELEMENT_SET_NO":999,"REV_AT_EPOCH":27304,"BSTAR":2.1057411e-5,"MEAN_MOTION_DOT":2.72e-6,"MEAN_MOTION_DDOT":0}]
